title,category,telephone,address,roadAddress,mapx,mapy,description,link
오드비어,"술집>맥주,호프",,서울특별시 강서구 마곡동 784-11,서울특별시 강서구 강서로 429 오드카운티1차오드비어 ,297674,551943,,
,,,,,,,,
3구역공인중개사사무소,부동산>중개업,02-3664-5544,서울특별시 강서구 방화동 614-225,서울특별시 강서구 개화동로23길 99,295138,552138,,https://blog.naver.com/magok365
,,,,,,,,
에이스보드카페,보드카페,,서울특별시 마포구 서교동 400-3,서울특별시 마포구 독막로7길 27,304683,550212,,
,,,,,,,,
,,,,,,,,
,,,,,,,,
,,,,,,,,
리치 스터디카페,"서비스,산업>장소대여",,강원도 원주시 행구동 1710-10,강원도 원주시 영랑길 14-1,397717,526557,,
원조뼈다귀 딜리버리,음식점>한식,031-553-5709,경기도 남양주시 다산동 3528-3,경기도 남양주시 미금로 136,325868,557272,,
,,,,,,,,
불타는정글,"해물,생선요리>바닷가재요리",031-376-8582,경기도 오산시 궐동 35-9,경기도 오산시 오산로358번길 15 1층,317461,506758,,
,,,,,,,,
,,,,,,,,
,,,,,,,,
,,,,,,,,
,,,,,,,,
,,,,,,,,
,,,,,,,,
카앤피플 인천남동구6호점,세차>스팀세차,,인천광역시 남동구 간석동 617-78,인천광역시 남동구 경원대로 944-4,284358,541328,,https://carnpeople.co.kr/lqwe3237
비젼 배드민턴센터,"스포츠,오락>배드민턴장",053-314-3609,대구광역시 달성군 다사읍 세천리 1678-8,대구광역시 달성군 다사읍 세천로7길 22-8,442853,364072,,http://blog.daum.net/tnsgh3795
,,,,,,,,
,,,,,,,,
,,,,,,,,
,,,,,,,,
,,,,,,,,
,,,,,,,,
,,,,,,,,
,,,,,,,,
,,,,,,,,
서원양곱창,"한식>곱창,막창,양",051-522-9001,부산광역시 동래구 안락동 425-27,부산광역시 동래구 충렬대로359번길 23,500218,289455,,
만배식당,한식>돼지고기구이,064-711-1024,제주특별자치도 제주시 도두일동 2587,제주특별자치도 제주시 도두항길 4-4 매화빌 1층 상가,257793,102166,,
,,,,,,,,
제이지에스비,"지원,대행>전시,행사대행",,서울특별시 강서구 마곡동 774-2,서울특별시 강서구 공항대로 213,296949,551476,,
,,,,,,,,
,,,,,,,,
,,,,,,,,
,,,,,,,,
,,,,,,,,
,,,,,,,,
,,,,,,,,
달려라소돼지,"한식>육류,고기요리",031-224-7484,경기도 수원시 권선구 세류동 587-3,경기도 수원시 권선구 정조로 445,312583,516830,,
,,,,,,,,
,,,,,,,,
잉글리시에그 위례센터,유아학습>영어교육,031-721-8883,경기도 성남시 수정구 창곡동 509 7층 715호,경기도 성남시 수정구 위례광장로 300 7층 715호,324374,541617,,
,,,,,,,,
,,,,,,,,
,,,,,,,,
,,,,,,,,
도쿄밥상,일식>일식당,,강원도 춘천시 낙원동 30-1 1층,강원도 춘천시 중앙로68번길 12,376085,586436,,http://도쿄밥상.할인주문.kr
,,,,,,,,
,,,,,,,,
,,,,,,,,
,,,,,,,,
,,,,,,,,
,,,,,,,,
,,,,,,,,
,,,,,,,,
통진콜,화물운송>퀵서비스,,경기도 김포시 통진읍 마송리 585-8 1층 103호,경기도 김포시 통진읍 율마로438번길 34-29 1층 103호,277114,565875,,
,,,,,,,,
,,,,,,,,
,,,,,,,,
하트찹쌀꽈배기,"카페,디저트>도넛",031-949-4393,경기도 파주시 금촌동 992,경기도 파주시 후곡로 50 분산상가 103,291862,572879,,
꼬꼬스토리 별내신도시점,"음식점>치킨,닭강정",031-572-5542,경기도 남양주시 별내동 1097-5 106호,경기도 남양주시 별내5로5번길 5 106호,321939,561217,,
서남신시장상인회,"쇼핑,유통>시장",053-522-1223,대구광역시 달서구 감삼동 62-4,대구광역시 달서구 달구벌대로329길 10,449506,361703,,
,,,,,,,,
공간드림스터디카페,스터디카페,,대전광역시 유성구 지족동 1022,대전광역시 유성구 지족로 283 드림타워 6층,338121,421007,,https://instagram.com/spacedream7987?igshid=107j4vlgfhuof
,,,,,,,,
,,,,,,,,
,,,,,,,,
노가리앤비어 제주하귀점,"술집>맥주,호프",064-747-0865,제주특별자치도 제주시 애월읍 하귀1리 162-4 1층,제주특별자치도 제주시 애월읍 하귀9길 56 1층,252909,99617,,
,,,,,,,,
,,,,,,,,
,,,,,,,,
이마트24 연세장례식장원주점,"생활,편의>편의점",033-744-4288,강원도 원주시 일산동 162-33,강원도 원주시 일산로 20,395383,527453,,
,,,,,,,,
,,,,,,,,
,,,,,,,,
,,,,,,,,
속초머구리활어수산,한식>생선회,033-631-3051,강원도 속초시 장사동 548-7,강원도 속초시 장사항해안길 58,451679,625021,,
에이바우트커피 용인죽전점,"음식점>카페,디저트>카페",,경기도 용인시 수지구 죽전동 1177-2,경기도 용인시 수지구 현암로 113,322400,525920,,
예능캐슬어린이집,"교육,학문>어린이집",053-638-9229,대구광역시 달서구 상인동 1214,대구광역시 달서구 월곡로26안길 17-7,449917,356727,,
,,,,,,,,
메종휘게,"생활,편의>공방",,경기도 화성시 남양읍 남양리 2039-12,경기도 화성시 남양읍 역골중앙로100번길 15 1층 메종휘게,296321,512465,,http://instagram.com/_maison.hygge_
,,,,,,,,
,,,,,,,,
,,,,,,,,
비티알 서울 시흥점,패션>골프웨어,,서울특별시 금천구 시흥동 883-15,서울특별시 금천구 시흥대로58길 5,303007,539641,,
,,,,,,,,
명품도시락,"음식점>도시락,컵밥",033-553-4612,강원도 태백시 황지동 15-11,강원도 태백시 황지북3길 16 명품도시락,488157,508615,,https://blog.naver.com/bs0224224
청춘식당,음식점>한식,031-957-9295,경기도 파주시 탄현면 금승리 11-36,경기도 파주시 탄현면 엘씨디로241번길 47-9 102호 청춘식당,290853,579327,,
,,,,,,,,
,,,,,,,,
,,,,,,,,
,,,,,,,,
르하임스터디카페 대구월성점,"서비스,산업>장소대여",,대구광역시 달서구 월성동 1840,"대구광역시 달서구 조암로 39 에스아이타워 5층 503호,504호",447738,358385,,http://르하임.com
,,,,,,,,
마인드숨 심리상담&amp;명상센터,"건강,의료>심리상담",031-281-0233,경기도 수원시 영통구 이의동 1331,"경기도 수원시 영통구 센트럴타운로 107 광교 푸르지오월드마크, 월드스퀘어상가 2층",315819,521554,,http://blog.naver.com/healwith
,,,,,,,,
,,,,,,,,
정통돈까스 까스맨 주안점,일식>돈가스,032-867-9396,인천광역시 미추홀구 주안동 268-1,인천광역시 미추홀구 주안서로 57,283224,541022,,
,,,,,,,,
그린라인 경기북부센터,"지원,대행>소독,구충,방제서비스",031-978-0924,경기도 고양시 덕양구 행신동 713-1,경기도 고양시 덕양구 무원로6번길 61 503-7호,297188,557589,,http://www.green-line.co.kr
코코호도 영통구청점,"카페,디저트>호두과자",,경기도 수원시 영통구 매탄동 1158-5,경기도 수원시 영통구 효원로 372,315224,517887,,https://www.instagram.com/cocohodo_s2/
,,,,,,,,
,,,,,,,,
돼지곳간,한식>돼지고기구이,033-661-3744,강원도 강릉시 주문진읍 교항리 176-6,강원도 강릉시 주문진읍 장성로 54,472870,587565,,
토즈스터디센터 동소문센터,"교육,학문>독서실",02-953-0122,서울특별시 성북구 동소문동3가 29,서울특별시 성북구 동소문로 40 5층,312810,554666,,
,,,,,,,,
엄마의마음,"쇼핑,유통>반찬가게",051-731-7020,부산광역시 해운대구 우동 1008-5,부산광역시 해운대구 해운대로 428 동부올림픽타운 상가동 1층 엄마의마음,504068,285825,,http://www.instagram.com/mommind_food
,,,,,,,,
,,,,,,,,
,,,,,,,,
,,,,,,,,
,,,,,,,,
,,,,,,,,
비어비어짠비어,"술집>맥주,호프",,서울특별시 양천구 신월동 49-12,서울특별시 양천구 가로공원로 99,296532,548840,,
,,,,,,,,
,,,,,,,,
,,,,,,,,
강서구아이폰수리폰사요몰,"쇼핑,유통>중고폰",,서울특별시 강서구 화곡동 143,서울특별시 강서구 화곡로 178,297817,549481,,https://djawl6134.wixsite.com/010-8366-6661//
,,,,,,,,
,,,,,,,,
,,,,,,,,
,,,,,,,,
,,,,,,,,
,,,,,,,,
목수식당,음식점>한식,051-973-2196,부산광역시 강서구 신호동 220-6,부산광역시 강서구 신호산단4로64번길 10,480412,276595,,
,,,,,,,,
,,,,,,,,
,,,,,,,,
소분행,분식>김밥,052-234-7776,울산광역시 동구 방어동 70-2,울산광역시 동구 등대6길 5 1층상가 소분행,529802,321868,,
사단법인 전국친환경농업인연합회,"협회,단체",,세종특별자치시 도담동 655 5층 504호,세종특별자치시 한누리대로 589 5층 504호,333762,435261,,http://ofkorea.org/
위넌스터디카페 화정점,"서비스,산업>장소대여",,경기도 고양시 덕양구 화정동 975,경기도 고양시 덕양구 화신로260번길 66 302호,297234,559683,,
,,,,,,,,
,,,,,,,,
수유리찌개백반,음식점>한식,,서울특별시 성북구 삼선동4가 350-6,서울특별시 성북구 보문로36길 12 1층,313205,554758,,
,,,,,,,,
,,,,,,,,
,,,,,,,,
에그드랍 신제주연동점,양식>샌드위치,064-723-7074,제주특별자치도 제주시 연동 272-36,제주특별자치도 제주시 신대로14길 52 에그드랍 신제주연동점,259961,100131,,
,,,,,,,,
,,,,,,,,
,,,,,,,,
,,,,,,,,
,,,,,,,,
리얼스칼프 &amp; 메이크업,"생활,편의>미용",,대구광역시 북구 사수동 787,대구광역시 북구 내곡로 69 상가동 1층 101호,446357,367003,,
,,,,,,,,
,,,,,,,,
,,,,,,,,
,,,,,,,,
,,,,,,,,
위브서점,"도서,음반,문구>아동도서",,경기도 부천시 중동 1112,경기도 부천시 신흥로 150-1 위브 더 스테이트 802동 214호,292219,544654,,http://blog.naver.com/rkskqnrtm23
,,,,,,,,
,,,,,,,,
그라시움미술,학원>미술학원,,서울특별시 강동구 고덕동 212,서울특별시 강동구 고덕로 333 122동 204호,326326,551029,,
,,,,,,,,
,,,,,,,,
,,,,,,,,
,,,,,,,,
,,,,,,,,
,,,,,,,,
,,,,,,,,
,,,,,,,,
,,,,,,,,
은지네식당,"한식>곱창,막창,양",032-937-6070,인천광역시 강화군 길상면 온수리 502-10,인천광역시 강화군 길상면 강화동로 11,267045,560853,,
,,,,,,,,
,,,,,,,,
,,,,,,,,
,,,,,,,,
,,,,,,,,
,,,,,,,,
,,,,,,,,
꼴통이네 밥집,음식점>한식,031-224-2513,경기도 화성시 봉담읍 와우리 83-1,경기도 화성시 봉담읍 와우안길 60,309278,513274,,
,,,,,,,,
,,,,,,,,
누룽누룽,"제조업>곡물가공,제조",,경기도 고양시 일산동구 백석동 1349,경기도 고양시 일산동구 백석로 24 국제한진상가 1층 114호,292749,560837,,
티알에프 냉동냉장,"생활,편의>수리,AS",,부산광역시 서구 동대신동2가 122,부산광역시 서구 대영로112번길 66,493503,279774,,http://blog.naver.com/qkdwnsdud200
,,,,,,,,
포텐스터디카페 춘천석사점,"서비스,산업>장소대여",,강원도 춘천시 석사동 880-2,강원도 춘천시 퇴계농공로 16 7층,377698,583286,,http://instagram.com/pot8211
상수동밥한끼,음식점>한식,02-335-0456,서울특별시 마포구 상수동 396,서울특별시 마포구 독막로 98 상가 102호. 상수동밥한끼,305145,550022,,
,,,,,,,,
,,,,,,,,
바이씬,패션>여성의류,,서울특별시 강서구 마곡동 760-2 118호,서울특별시 강서구 마곡중앙로 161-1 118호,296620,552385,,http://www.instagram.com/_bysin
,,,,,,,,
호센식당,일식>일식당,064-799-3423,제주특별자치도 제주시 애월읍 신엄리 2791-5,제주특별자치도 제주시 애월읍 애월해안로 496 1층  호센식당,247512,99283,,
모딤,음식점>양식,031-389-9977,경기도 안양시 동안구 관양동 922,경기도 안양시 동안구 벌말로 66 하이필드지식산업센터 101호,308941,532954,,http://www.instagram.com/modim.official
,,,,,,,,
,,,,,,,,
카토식당,일식>일식당,031-905-9347,경기도 고양시 일산동구 마두동 721 일송빌딩 1층 카토식당,경기도 고양시 일산동구 일산로 250 일송빌딩 1층 카토식당,293275,562494,,http://www.instagram.com/kato.illsan
,,,,,,,,
파리바게뜨 시흥시청점,"카페,디저트>베이커리",031-316-1420,경기도 시흥시 장현동 538-3,경기도 시흥시 시청로 74 시청로 48,293888,531665,,http://www.paris.co.kr/
,,,,,,,,
,,,,,,,,
,,,,,,,,
동신아파트,주택>아파트,,서울특별시 노원구 월계동 436,서울특별시 노원구 광운로2나길 30,317303,557579,,
,,,,,,,,
,,,,,,,,
플랜에이스터디카페 등촌센터,"서비스,산업>장소대여",,서울특별시 양천구 목동 602-15,서울특별시 양천구 목동중앙북로7길 20 2층,300135,550222,,https://pf.kakao.com/_hpnxmT
,,,,,,,,
,,,,,,,,
결정적순간,"전문,기술서비스>전문사진촬영,처리",,서울특별시 중구 을지로2가 101-27,서울특별시 중구 삼일대로12길 22-1 동진빌딩 402호,310884,552084,,http://instagram.com/decisive_moment_lab
,,,,,,,,
,,,,,,,,
,,,,,,,,
오죽헌 엄마의밥상,음식점>한식,,부산광역시 연제구 거제동 887-3,부산광역시 연제구 아시아드대로 22,497621,288106,,https://ojukheon1.modoo.at/
엄마축산,"쇼핑,유통>정육점",031-966-9399,경기도 고양시 덕양구 화정동 893,경기도 고양시 덕양구 화중로152번길 4,297213,560426,,
,,,,,,,,
,,,,,,,,
작은섬,"술집>맥주,호프",042-252-8286,대전광역시 중구 선화동 244-11,대전광역시 중구 선화로 120,348177,414558,,
,,,,,,,,
,,,,,,,,
,,,,,,,,
,,,,,,,,
,,,,,,,,
,,,,,,,,
서비식당,"한식>육류,고기요리",02-2212-7094,서울특별시 동대문구 전농동 103-91,서울특별시 동대문구 서울시립대로27길 40 101호 서비식당,316515,553997,,
크로스핏하이퍼짐,"스포츠,오락>스포츠시설",02-242-2890,강원도 춘천시 효자동 17-8,강원도 춘천시 서부대성로239번길 29 cc볼링장 1층,377845,585850,,http://instagram.com/crossfithypergym
,,,,,,,,
직거래회수산,한식>생선회,031-254-7772,경기도 수원시 팔달구 화서동 644-1,경기도 수원시 팔달구 덕영대로 693,310653,520820,,
,,,,,,,,
,,,,,,,,
,,,,,,,,
넘버25호텔 이천터미널점,숙박>모텔,,경기도 이천시 창전동 165-1,경기도 이천시 이섭대천로 1229 5층,351107,519936,,
,,,,,,,,
,,,,,,,,
,,,,,,,,
,,,,,,,,
,,,,,,,,
,,,,,,,,
말례밥집,음식점>한식,,부산광역시 중구 중앙동4가 82-7,부산광역시 중구 충장대로5번길 33,494753,279330,,
,,,,,,,,
,,,,,,,,
,,,,,,,,
고돼지 심곡점,"한식>육류,고기요리",032-611-0624,경기도 부천시 심곡동 398-20,경기도 부천시 부일로432번길 13,292147,543353,,
브레댄코 삼성역점,"카페,디저트>베이커리",02-557-0470,서울특별시 강남구 대치동 950-1,서울특별시 강남구 영동대로85길 13,317320,545391,,http://www.instagram.com/breadncosamsung
건강밥상심마니 은계점,"한식>백숙,삼계탕",031-311-2539,경기도 시흥시 은행동 646-10,경기도 시흥시 은계번영길 23 은계타운 3층,294352,537903,,
선식당 목동점,음식점>양식,02-2644-0102,서울특별시 양천구 신정동 323-12,서울특별시 양천구 목동동로 73 양지빌딩 2층,299678,546565,,
,,,,,,,,
,,,,,,,,
해물먹을래,"한식>아귀찜,해물찜",031-429-4002,경기도 군포시 당동 763-3,경기도 군포시 당동로22번길 21,306475,528307,,
,,,,,,,,
,,,,,,,,
,,,,,,,,
J학원,"교육,학문>교습학원",,인천광역시 중구 중산동 1883-9,"인천광역시 중구 하늘중앙로195번길 23 ,  하늘프라자 6층 602호",273047,543984,,
,,,,,,,,
이은비영어교습소,어학원>영어학원,053-585-0599,대구광역시 달성군 다사읍 매곡리 1568,대구광역시 달성군 다사읍 다사로 50 죽곡삼정그린코아더베스트APT상가내 401동 202호,441856,362793,,
,,,,,,,,
,,,,,,,,
,,,,,,,,
풀무원녹즙울산남구중부점,"쇼핑,유통>건강기능보조식품",,울산광역시 남구 신정동 714-20,울산광역시 남구 돋질로37번길 30,518911,327519,,
아오리라멘 인천계양점,일식>일본식라면,,인천광역시 계양구 용종동 207-1 101동 1층,인천광역시 계양구 계양문화로 119 101동 1층,288693,549615,,https://www.instagram.com/aoriramen/
,,,,,,,,
,,,,,,,,
,,,,,,,,
,,,,,,,,
시그니처아레나 초지점,"스포츠,오락>PC방",,경기도 안산시 단원구 초지동 734,경기도 안산시 단원구 초지2로 67-17,295256,523540,,
도무지,"전문,기술서비스>전문디자인",,제주특별자치도 제주시 한경면 고산리 3610-4,제주특별자치도 제주시 한경면 노을해안로 1166,229333,80741,,http://www.instagram.com/domooji
,,,,,,,,
,,,,,,,,
,,,,,,,,
,,,,,,,,
,,,,,,,,
,,,,,,,,
,,,,,,,,
푸라닭 인천산곡2동점,"음식점>치킨,닭강정",032-512-9206,인천광역시 부평구 산곡동 263-50,인천광역시 부평구 부흥로123번길 43,285732,545065,,http://www.puradak.com
,,,,,,,,
,,,,,,,,
수림식당 3호점,중식>중식당,,부산광역시 북구 화명동 1161-1,부산광역시 북구 화명대로94번길 116 2동 201호 수림식당,492736,292711,,
,,,,,,,,
,,,,,,,,
,,,,,,,,
,,,,,,,,
,,,,,,,,
,,,,,,,,
,,,,,,,,
,,,,,,,,
,,,,,,,,
크레오어학원 대치,어학원>영어학원,02-563-0579,서울특별시 강남구 대치동 651 여천빌딩 8층,서울특별시 강남구 남부순환로 2909 여천빌딩 8층,316845,543758,,http://dybcreo.com/
마음챙김 MFHS명상센터,"협회,단체>명상",,부산광역시 수영구 남천동 5-8 3층,부산광역시 수영구 광남로48번길 29 3층,501647,283606,,
,,,,,,,,
곱창고 강남역점,"육류,고기요리>곱창,막창,양",02-2141-0001,서울특별시 강남구 역삼동 817-12,서울특별시 강남구 강남대로96길 11,314248,544642,,
,,,,,,,,
고복식당,한식>돼지고기구이,062-953-0966,광주광역시 광산구 수완동 966,광주광역시 광산구 임방울대로 362,293123,288796,,
,,,,,,,,
,,,,,,,,
,,,,,,,,
위너플레이펍,"술집>맥주,호프",,광주광역시 북구 용봉동 1398-2,광주광역시 북구 저불로 35 3층,299560,287091,,
,,,,,,,,
,,,,,,,,
,,,,,,,,
단하나케이크 용인CGV점,"카페,디저트>케이크전문",031-332-8666,경기도 용인시 처인구 김량장동 301-3 2층 204호,경기도 용인시 처인구 금령로 86 2층 204호,329729,515103,,
함덕원,"한식>칼국수,만두",,제주특별자치도 제주시 조천읍 함덕리 3392-1,제주특별자치도 제주시 조천읍 신북로 422,275323,106086,,
,,,,,,,,
,,,,,,,,
,,,,,,,,
,,,,,,,,
,,,,,,,,
,,,,,,,,
,,,,,,,,
,,,,,,,,
,,,,,,,,
,,,,,,,,
,,,,,,,,
,,,,,,,,
데코하우스커튼,"쇼핑,유통>침구,커튼",053-943-1004,대구광역시 북구 칠성동2가 20-1,대구광역시 북구 침산로 93 스펙트럼시티2203호 이마트칠성점2층전시장,453447,365190,,
,,,,,,,,
원흥빌딩,"시설,건물>기업,빌딩",,경기도 용인시 수지구 성복동 71-3,경기도 용인시 수지구 수지로 125,318621,523892,,
,,,,,,,,
,,,,,,,,
,,,,,,,,
속초시도서체육센터,"교육,학문>도서관",033-639-3714,강원도 속초시 조양동 1083,강원도 속초시 조양로 89,451954,620584,,http://www.sokcho.go.kr/portal/happysokcho/businessplace/infosportscenter
,,,,,,,,
,,,,,,,,
,,,,,,,,
,,,,,,,,
,,,,,,,,
국수랑 전이랑,한식>국수,02-899-2252,경기도 광명시 일직동 515 무역센터 C동 110호,경기도 광명시 일직로 72 무역센터 C동 110호,301875,535914,,
롯데리아 소담점,양식>햄버거,044-867-7771,세종특별자치시 소담동 9-177,세종특별자치시 한누리대로 2009,337526,431794,,
퀸스맘 의왕안양군포지사,"지원,대행>산후도우미",031-426-5086,경기도 의왕시 내손동 751-3,경기도 의왕시 갈미2로 38 두성프라자 401-3호,309138,531321,,http://wondermom-care.com
,,,,,,,,
문산식당 옥이점,음식점>한식,,경기도 파주시 문산읍 선유리 907-2 6호,경기도 파주시 문산읍 봉미로 19 6호,293367,585088,,
자미호프,"술집>맥주,호프",02-869-2188,서울특별시 구로구 구로동 414-10,서울특별시 구로구 구로동로 167,301427,544082,,
옥란식당,한식>돼지고기구이,031-481-9494,경기도 안산시 단원구 초지동 608 상가동 1층 111호,경기도 안산시 단원구 화랑로 159 상가동 1층 111호,294397,525352,,http://www.instagram.com/okran_restaurant
,,,,,,,,
,,,,,,,,
파리바게뜨 매탄성일점,"카페,디저트>베이커리",031-213-3689,경기도 수원시 영통구 매탄동 810-4,경기도 수원시 영통구 인계로 239 성일아파트,315481,518513,,http://www.paris.co.kr/
군자대한곱창 세종나성점,"육류,고기요리>곱창,막창,양",044-867-7384,세종특별자치시 나성동 764,세종특별자치시 한누리대로 288 갤러리밸류시티 114~116호(나성동),333641,432377,,http://대한곱창.com
,,,,,,,,
예당 안산 성포점,"생활,편의>좌훈,족욕,좌욕",031-403-9022,경기도 안산시 상록구 성포동 593-6 202호,경기도 안산시 상록구 예술광장로 63,297866,525600,한방쑥 좌훈업체.,
,,,,,,,,
,,,,,,,,
,,,,,,,,
,,,,,,,,
,,,,,,,,
리빙아울렛DC백화점,"쇼핑,유통>슈퍼,마트",031-511-6755,경기도 남양주시 화도읍 마석우리 220-18,경기도 남양주시 화도읍 마석로 28,339036,561454,,
,,,,,,,,
모미락 계산점,일식>돈가스,032-551-2825,인천광역시 계양구 용종동 210-1,인천광역시 계양구 오조산로89번길 9 태영프라즈 제1층 제101호 모미락,288632,549266,,
,,,,,,,,
,,,,,,,,
,,,,,,,,
이마트24 조선대체대점,"생활,편의>편의점",062-223-1241,광주광역시 동구 서석동 375,광주광역시 동구 필문대로 309,303117,283194,,http://www.emart24.co.kr
,,,,,,,,
하우스터디 대구대곡 스터디카페,"서비스,산업>장소대여",,대구광역시 달서구 대곡동 1080,대구광역시 달서구 갈밭로 16 남도타워 7층,448271,355896,,http://blog.naver.com/nyk0413n
,,,,,,,,
쑤기네,"전통식품>떡,한과",,대전광역시 서구 괴정동 69-12,대전광역시 서구 괴정로54번길 28 1층,344649,415626,,http://instagram.com/ssugine1
청라 제임스권영어학원,어학원>영어학원,032-561-6551,인천광역시 서구 청라동 162-14,인천광역시 서구 중봉대로 588 청라센트럴프라자 8층 청라 제임스권영어학원,280904,548628,,
,,,,,,,,
삼성척재활의학과의원,"병원,의원>정형외과",02-902-7589,서울특별시 도봉구 창동 135-15,서울특별시 도봉구 노해로63길 84-3 동선빌딩 3층,316106,561588,,http://sschuk.com
노브랜드 대구학정점,"쇼핑,유통>슈퍼,마트",053-312-3399,대구광역시 북구 학정동 283-2,대구광역시 북구 학정로 535,451170,372636,,
,,,,,,,,
,,,,,,,,
더달달 양원점,"쇼핑,유통>가공식품",,서울특별시 중랑구 망우동 127-3,서울특별시 중랑구 양원역로 14,321465,555873,,
,,,,,,,,
,,,,,,,,
,,,,,,,,
,,,,,,,,
,,,,,,,,
,,,,,,,,
,,,,,,,,
,,,,,,,,
도깨비한끼뚝딱밥집,음식점>한식,,경기도 부천시 역곡동 111-2,경기도 부천시 역곡로14번길 42,295282,543430,,
,,,,,,,,
라라코스트 죽곡점,음식점>패밀리레스토랑,053-585-3230,대구광역시 달성군 다사읍 매곡리 1548-3,대구광역시 달성군 다사읍 대실역북로1길 5-5,442282,362133,,https://www.raracost.com
,,,,,,,,
다모아점핑,"스포츠,오락>스포츠시설",,경기도 포천시 선단동 460-19,경기도 포천시 삼육사로 2221 경복상가 2층,326498,583609,,
,,,,,,,,
하나로축산물센터 침산점,"쇼핑,유통>정육점",,대구광역시 북구 침산동 10-1,대구광역시 북구 침산남로44길 47,454209,365128,,
,,,,,,,,
,,,,,,,,
,,,,,,,,
작심스터디카페 부산기장점,음식점>스터디카페,051-722-0910,부산광역시 기장군 기장읍 동부리 152-3,부산광역시 기장군 기장읍 차성로344번길 34 2층,510837,295013,,http://studycafe.zaksim.co.kr/study/event/contentsIntro.jsp
,,,,,,,,
,,,,,,,,
마루스터디카페,"서비스,산업>장소대여",,서울특별시 영등포구 신길동 355-497 2층,서울특별시 영등포구 도림로 289 2층,303223,545174,,https://marustudycafe.modoo.at
,,,,,,,,
,,,,,,,,
,,,,,,,,
,,,,,,,,
다원포차,술집>포장마차,,경기도 안산시 단원구 와동 821-18,경기도 안산시 단원구 와동공원로 44,295427,526808,,
Amigga,"음식점>카페,디저트",02-704-6532,서울특별시 마포구 염리동 45,서울특별시 마포구 숭문길 98,307108,550300,,
피자이탈리 양주고읍점,음식점>양식>피자,0504-0999-0950,경기도 양주시 광사동 657,경기도 양주시 고읍남로 23,319068,577196,,http://www.odr.kr/M9Ze80
,,,,,,,,
글로리식당,음식점>한식,,서울특별시 송파구 송파동 85-12,서울특별시 송파구 백제고분로42길 4-13 102호,321408,545194,,http://www.instagram.com/glory_sikdang/
경복대학교 남양주캠퍼스창조관,전문대학>부속건물,,경기도 남양주시 진접읍 금곡리 383,경기도 남양주시 진접읍 경복대로 425-17 경복대학교,330705,570590,,
멕시카나치킨 평리점,"음식점>치킨,닭강정",,대구광역시 서구 평리동 1090-9,대구광역시 서구 국채보상로49길 9,450516,363683,,http://0535669992.bdp.kr
,,,,,,,,
경북도서관북카페,"음식점>카페,디저트",,경상북도 예천군 호명면 산합리 1498,경상북도 예천군 호명면 도청대로 200,443867,441618,,
97도씨해물칼국수 영종본점,"한식>칼국수,만두",032-751-0056,인천광역시 중구 중산동 1938-6,인천광역시 중구 영종진광장로 39 오션테라스 1층,274508,544612,,
,,,,,,,,
,,,,,,,,
,,,,,,,,
,,,,,,,,
이화만두,분식>만두,02-455-3486,서울특별시 광진구 능동 282-3,서울특별시 광진구 능동로 278-1 이화만두,318776,550679,,https://instagram.com/ewhamandu
,,,,,,,,
,,,,,,,,
,,,,,,,,
,,,,,,,,
,,,,,,,,
,,,,,,,,
,,,,,,,,
슬비밥상,음식점>한식,031-215-3785,경기도 수원시 영통구 매탄동 130-11,경기도 수원시 영통구 동수원로514번길 11,315694,519375,,
,,,,,,,,
,,,,,,,,
,,,,,,,,
앤치킨,"음식점>치킨,닭강정",031-411-1511,경기도 안산시 단원구 고잔동 773-1,"경기도 안산시 단원구 광덕2로 194-4 104,105호",296640,523675,,
,,,,,,,,
,,,,,,,,
수원축산농협금융본점,"금융,보험>신용조합",,경기도 수원시 팔달구 인계동 1124-5,경기도 수원시 팔달구 효원로 289,314461,518192,,http://www.lico.co.kr/
,,,,,,,,
,,,,,,,,
,,,,,,,,
,,,,,,,,
,,,,,,,,
어랑주막,"한식>전,빈대떡",,서울특별시 금천구 독산동 965-10,서울특별시 금천구 시흥대로152길 30 1층 어랑주막,302969,542199,,
GS25 광주고은점,"생활,편의>편의점",031-797-5910,경기도 광주시 초월읍 신월리 446-5,경기도 광주시 초월읍 산수로 517,338979,534099,,http://gs25.gsretail.com/
,,,,,,,,
,,,,,,,,
,,,,,,,,
,,,,,,,,
,,,,,,,,
,,,,,,,,
불교회관주차장,"교통,운수>주차장",,부산광역시 부산진구 양정동 393-12,부산광역시 부산진구 중앙대로 913,497632,286415,,
,,,,,,,,
,,,,,,,,
원이국수,음식점>한식,053-767-4869,대구광역시 수성구 황금동 754-4,대구광역시 수성구 들안로 198,455935,361033,,
대한감자탕,한식>감자탕,051-702-9992,부산광역시 해운대구 좌동 1480-1 조일프라자 105호,부산광역시 해운대구 양운로42번길 20 조일프라자 105호,507441,286161,,https://welcometodongmakgol.modoo.at
,,,,,,,,
보그룸소주방,술집>단란주점,062-973-6060,광주광역시 광산구 월계동 878-6 3층,광주광역시 광산구 임방울대로800번길 39 3층,295156,291355,,
,,,,,,,,
,,,,,,,,
,,,,,,,,
,,,,,,,,
회나무길식당,음식점>한식,02-792-0789,서울특별시 용산구 이태원동 210-58,서울특별시 용산구 회나무로32길 14 1층,311201,549090,,
시즌테이블,"이탈리아음식>스파게티,파스타전문",02-353-9222,서울특별시 은평구 진관동 73,서울특별시 은평구 진관2로 15-8 웅신 미켈란의아침 상가 110호 시즌테이블,304824,559783,,
,,,,,,,,
,,,,,,,,
,,,,,,,,
,,,,,,,,
,,,,,,,,
,,,,,,,,
,,,,,,,,
몸애존짜장 방학점,중식>중식당,,서울특별시 도봉구 방학동 633-1,서울특별시 도봉구 도당로13길 20,315099,563033,,
,,,,,,,,
광장생아구탕,"한식>아귀찜,해물찜",053-556-6688,대구광역시 서구 내당동 221-7,대구광역시 서구 서대구로 6,450578,362235,,http://gwangjangpig.cityfood.co.kr
,,,,,,,,
공부인스터디카페 광주신창센터,"서비스,산업>장소대여",062-955-5850,광주광역시 광산구 신창동 1131-4 2층,광주광역시 광산구 신창로 130 2층,294458,289262,,http://www.gongbuin.com
카앤피플 부산남구3호점,세차>스팀세차,,부산광역시 남구 대연동 1172-130,부산광역시 남구 전선등로61번길 49,499313,281353,,https://carnpeople.co.kr/kyg7730
,,,,,,,,
,,,,,,,,
버거킹 서대문역점,양식>햄버거,,서울특별시 중구 순화동 215 바비엥3 1층 104호,서울특별시 중구 통일로 86,309150,551713,,
두리테크하수구뚫음변기막힘설비,"건설업>배관,냉난방공사",02-6374-0046,서울특별시 송파구 거여동 290,서울특별시 송파구 양산로8길 8,324560,543585,,https://songpahasugu.modoo.at
,,,,,,,,
,,,,,,,,
더누들카페,분식>라면,,세종특별자치시 조치원읍 교리 14-18 1층,세종특별자치시 조치원읍 새내로 131 1층,337345,444961,,
,,,,,,,,
,,,,,,,,
수찬이네왕새우,분식>종합분식,032-761-1010,인천광역시 중구 내동 212-9 1층,인천광역시 중구 우현로49번길 20-2 1층,278777,541956,,
,,,,,,,,
더준피부과의원,"병원,의원>피부과",031-211-0079,경기도 수원시 영통구 원천동 589 광교중흥에스클래스 2층,경기도 수원시 영통구 광교호수공원로 277 광교 중흥S클래스상가 2층,316503,520720,,http://thejunskin.com
,,,,,,,,
,,,,,,,,
,,,,,,,,
키즈톡톡아동발달센터,"협회,단체>치료,재활",031-719-7898,경기도 광주시 오포읍 신현리 362-3,경기도 광주시 오포읍 문형산길 27 2층 202호,325968,529076,,
,,,,,,,,
보배네식당,"한식>백반,가정식",031-856-4416,경기도 의정부시 의정부동 31-7 지상 1층,경기도 의정부시 태평로100번길 23 지상 1층,316733,571435,,http://beancurdtaste.modoo.at/
신신면옥,한식>냉면,032-433-1701,인천광역시 미추홀구 주안동 46-1,인천광역시 미추홀구 주안로 219,284675,540970,,
고래식당 군포당동점,"한식>해물,생선요리",031-399-6092,경기도 군포시 당동 921-3,경기도 군포시 고산로 260,306625,527716,,
,,,,,,,,
,,,,,,,,
,,,,,,,,
,,,,,,,,
,,,,,,,,
JH프라자,"시설,건물>기업,빌딩",,경기도 김포시 양촌읍 학운리 3782,경기도 김포시 양촌읍 황금로274번길 4,277033,557617,,
맵겠쮸,음식점>한식,042-535-3792,대전광역시 서구 도마동 108-6 1층,대전광역시 서구 도솔로 89 1층,343919,413289,,
,,,,,,,,
,,,,,,,,
,,,,,,,,
리프커피,"카페,디저트>카페",,서울특별시 중구 신당동 355-4,서울특별시 중구 동호로 195-15,312678,550772,,https://www.instagram.com/leaf_coffe.e/
,,,,,,,,
,,,,,,,,
비스트로네모,"이탈리아음식>스파게티,파스타전문",,인천광역시 연수구 송도동 149,인천광역시 연수구 송도과학로27번길 55 c동 118호,281989,532509,,
,,,,,,,,
,,,,,,,,
스틱 전자담배,제조업>전자담배,,서울특별시 강남구 대치동 930-16,서울특별시 강남구 삼성로63길 16 1층 스틱,316984,544610,,
,,,,,,,,
,,,,,,,,
,,,,,,,,
,,,,,,,,
,,,,,,,,
,,,,,,,,
,,,,,,,,
파리바게뜨 영종현대,"카페,디저트>베이커리",032-746-0707,인천광역시 중구 중산동 1885-1,인천광역시 중구 하늘별빛로65번길 7-4,273168,543939,,
,,,,,,,,
,,,,,,,,
,,,,,,,,
푸라닭 부산구서점,"음식점>치킨,닭강정",051-513-9206,부산광역시 금정구 구서동 775-8,부산광역시 금정구 금강로 467 1층,499215,295001,,http://www.puradak.com
,,,,,,,,
쉐프윤찹쌀꽈배기고로케 천호점,"카페,디저트>베이커리",02-478-1005,서울특별시 강동구 천호동 297-10,서울특별시 강동구 구천면로 275 1층 102호,323557,549531,,
,,,,,,,,
,,,,,,,,
,,,,,,,,
,,,,,,,,
,,,,,,,,
,,,,,,,,
,,,,,,,,
서울관악지역자활센터,"사회,복지",02-867-8381,서울특별시 관악구 신원동 1631-19 평희빌딩 5층,서울특별시 관악구 문성로 236 평희빌딩,305536,542397,,http://www.iska.or.kr/
,,,,,,,,
,,,,,,,,
60계 치킨 세종새롬점,"음식점>치킨,닭강정",044-865-6079,세종특별자치시 새롬동 산19,세종특별자치시 새롬중앙로 62-15 134~135호,333106,432061,,http://www.60chicken.co.kr
아소중기,"임대,대여>중장비",,경기도 수원시 팔달구 인계동 1040-9,경기도 수원시 팔달구 인계로124번길 37,314223,518658,,http://아소중기.com
선식당 동탄점,음식점>양식,031-8015-1999,경기도 화성시 반송동 113-8,경기도 화성시 노작로4길 22-2 1층,318307,511066,,https://blog.naver.com/sun_dongtan/
,,,,,,,,
,,,,,,,,
,,,,,,,,
땅스부대찌개 경북구미점,"한식>찌개,전골",054-456-8599,경상북도 구미시 고아읍 문성리 1402,경상북도 구미시 고아읍 들성로 218 중앙상가,431186,395629,,
,,,,,,,,
야미마라탕 용인점,중식>중식당,031-337-0068,경기도 용인시 처인구 모현읍 왕산리 506-7 대종빌딩 1층,경기도 용인시 처인구 모현읍 외대로26번길 2 대종빌딩 1층,333928,526299,,
CGV 서면삼정타워,"문화,예술>영화관",1544-1122,부산광역시 부산진구 부전동 227-2,부산광역시 부산진구 중앙대로 672 서면피에스타 11층(부전동),496739,284312,,http://www.cgv.co.kr
,,,,,,,,
마초회관,"한식>육류,고기요리",,인천광역시 서구 가정동 611-3,인천광역시 서구 염곡로498번안길 6 마초회관,282624,548236,,https://macho8393.modoo.at
,,,,,,,,
소담식당,음식점>한식,,강원도 춘천시 후평동 706-11,강원도 춘천시 춘천로309번길 9,377909,586676,,
,,,,,,,,
,,,,,,,,
,,,,,,,,
,,,,,,,,
동그라미 아지트,"음식점>카페,디저트",,경기도 용인시 처인구 이동읍 송전리 685-5 1층,경기도 용인시 처인구 이동읍 경기동로 694 1층,328865,504482,,http://www.instagram.com/dgrm_agit
,,,,,,,,
공부인스터디카페 대구칠곡운암센터,"서비스,산업>장소대여",053-314-0076,대구광역시 북구 동천동 878-4 5층,대구광역시 북구 구암로 143 5층 공부인스터디카페,450412,370366,,https://m.blog.naver.com/studycafeunam
,,,,,,,,
아마스빈 광주전남대점,"카페,디저트>카페",062-262-0808,광주광역시 북구 용봉동 160-1,광주광역시 북구 우치로 100,301148,286929,,http://amasvin.com/
,,,,,,,,
,,,,,,,,
,,,,,,,,
그린몰의원,"병원,의원>내과",02-517-9122,서울특별시 강남구 신사동 501-2 7층,서울특별시 강남구 도산대로 107 7층,313577,546522,,https://biogreenmall.modoo.at
,,,,,,,,
이도곰탕 본점,"한식>곰탕,설렁탕",02-569-0524,서울특별시 강남구 역삼동 671-17,서울특별시 강남구 논현로94길 29-5,315179,545014,,
,,,,,,,,
,,,,,,,,
세븐일레븐 대전성남점,"생활,편의>편의점",,대전광역시 동구 성남동 157-9,대전광역시 동구 동서대로1572번길 157,349347,415830,,http://www.7-eleven.co.kr
,,,,,,,,
라이브스낵,분식>종합분식,02-453-5588,서울특별시 광진구 자양동 615-35,서울특별시 광진구 뚝섬로49길 7 1층,318755,548245,,
,,,,,,,,
,,,,,,,,
큰사랑주야간복지센터,"사회,복지>재가노인요양센터",032-746-0884,인천광역시 중구 운남동 348-1,인천광역시 중구 운남동로 38-28 1층 (운남동),270694,544187,,
,,,,,,,,
,,,,,,,,
,,,,,,,,
,,,,,,,,
,,,,,,,,
줄라이플라워아트,"생활,편의>꽃집,꽃배달",053-242-7058,대구광역시 수성구 황금동 818-11,대구광역시 수성구 들안로28길 11,455993,360461,,http://www.instagram.com/july.flowerart
달달,"카페,디저트>카페",,경기도 수원시 권선구 세류동 1119-19,경기도 수원시 권선구 경수대로277번길 17,313128,517148,,
현아미용실,"생활,편의>미용실",02-977-8984,서울특별시 노원구 공릉동 556-6,서울특별시 노원구 동일로182길 37-10,318649,558341,,
대상라인,반려동물>반려동물분양,02-744-4505,서울특별시 종로구 창신동 436-64,서울특별시 종로구 청계천로 331 대상라인,313160,552447,,https://instagram.com/daesang_line?igshid=1ki5f67fnhud9
,,,,,,,,
,,,,,,,,
,,,,,,,,
파스쿠찌 대구황금점,"카페,디저트>카페",053-766-8497,대구광역시 수성구 두산동 94-2,대구광역시 수성구 청수로 130,456418,360144,,
,,,,,,,,
언니동생디저트,"카페,디저트>베이커리",,경기도 부천시 심곡동 432-17,경기도 부천시 신흥로96번길 47 1층,292374,544018,,http://www.instagram.com/sister_dessert_
설빙 인천영종도점,"카페,디저트>빙수",032-433-1111,인천광역시 중구 중산동 1874-8,인천광역시 중구 하늘달빛로64번길 6-3,272888,543598,,
,,,,,,,,
,,,,,,,,
,,,,,,,,
,,,,,,,,
유유식당,음식점>퓨전음식,031-795-0799,경기도 하남시 망월동 1127,경기도 하남시 미사강변한강로 270-1 1층 1-128호,329188,551654,,
알파텍,"쇼핑,유통>과학기기,장비",051-505-0159,부산광역시 동래구 사직1동 53-3,부산광역시 동래구 석사로 43,497063,289571,,
,,,,,,,,
,,,,,,,,
,,,,,,,,
진수네식당,음식점>한식,,광주광역시 남구 주월동 974-129,광주광역시 남구 회재로1231번길 20-2,299436,282414,,
무실한식뷔페,음식점>한식뷔페,033-732-0387,강원도 원주시 무실동 1731-8 1층,강원도 원주시 만대공원길 18-7 1층,393831,526265,,http://instagram.com/moosil_hansikbuffet
제주에코워시,세차>스팀세차,,제주특별자치도 서귀포시 대포동 1535-3,제주특별자치도 서귀포시 대포중앙로 63,254124,73366,,http://pf.kakao.com/_xehTyT
이디야커피 간석역점,"카페,디저트>카페",032-432-9269,인천광역시 미추홀구 주안동 46-1,인천광역시 미추홀구 주안로 219,284704,541005,,http://www.ediya.com/
명장숲속교실,교습학원>공부방,,부산광역시 동래구 명장동 431,부산광역시 동래구 명장로 65,501036,290163,,http://blog.naver.com/sherpamyeongjang
투빈카롱 마카롱연구소,"카페,디저트>베이커리",,경기도 남양주시 호평동 264-5,경기도 남양주시 천마산로12번길 10 연진빌,333938,562462,,http://twobeancaron.com/
,,,,,,,,
,,,,,,,,
,,,,,,,,
,,,,,,,,
쌍다리돼지불백 동천U타워점,"육류,고기요리>돼지고기구이",031-263-9289,경기도 용인시 수지구 동천동 899 A동 234호,경기도 용인시 수지구 신수로 767 A동 234호,320600,526694,,
,,,,,,,,
,,,,,,,,
,,,,,,,,
파리바게뜨 장현점,"카페,디저트>베이커리",031-572-5399,경기도 남양주시 진접읍 장현리 644-8,경기도 남양주시 진접읍 장현로 65,327925,568579,,http://www.paris.co.kr/
,,,,,,,,
강정계대식당,"한식>육류,고기요리",053-585-4846,대구광역시 달서구 호산동 373-9,대구광역시 달서구 호산동로35길 49,443813,361295,,
,,,,,,,,
두근돼지 김치찜,음식점>한식,,부산광역시 금정구 부곡동 977,부산광역시 금정구 부곡로42번길 25,499365,291770,,
,,,,,,,,
앤하우스,"전문,기술서비스>인테리어디자인",,울산광역시 남구 삼산동 180-10,울산광역시 남구 정동로118번길 26 앤하우스,522369,327995,,http://blog.naver.com/samsan1462
골프존파크 남양스카이점,스포츠시설>스크린골프장,031-356-5000,경기도 화성시 남양읍 남양리 1373-8,경기도 화성시 남양읍 남양성지로 217,295952,513035,,http://tennisprokim.modoo.at
,,,,,,,,
안심축산물센터은행점,"쇼핑,유통>정육점",031-746-3343,경기도 성남시 중원구 은행동 2392,경기도 성남시 중원구 자혜로 79,326609,539150,,
,,,,,,,,
,,,,,,,,
,,,,,,,,
,,,,,,,,
,,,,,,,,
,,,,,,,,
뽕림이네,음식점>한식,031-234-7676,경기도 화성시 안녕동 37-2,경기도 화성시 화산서길18번길 25-1 1층,312630,511950,,
몬스터잼,슬라임카페,,서울특별시 마포구 서교동 340-5,서울특별시 마포구 와우산로27길 35 제너럴빌딩 302호,305341,550801,,http://instagram.com/mmonsterjamm
,,,,,,,,
SIM명상센터,"스포츠,레크레이션학원>요가,명상",02-518-1209,서울특별시 강남구 신사동 566,서울특별시 강남구 논현로159길 27 다우빌딩 6층,314096,547169,,http://simmind.net/
,,,,,,,,
,,,,,,,,
,,,,,,,,
,,,,,,,,
,,,,,,,,
,,,,,,,,
달빛흘러간자리,"음식점>카페,디저트",,서울특별시 용산구 용산동2가 1-63,서울특별시 용산구 소월로20길 26-16 1층,310515,549700,,http://instagram.com/p.dohha
,,,,,,,,
,,,,,,,,
,,,,,,,,
공장식당,음식점>뷔페,032-512-7113,인천광역시 남동구 간석동 1-411,인천광역시 남동구 만월북로44번길 8-5,286884,541722,,
,,,,,,,,
,,,,,,,,
,,,,,,,,
,,,,,,,,
,,,,,,,,
,,,,,,,,
맛닭꼬 아차산점,"음식점>치킨,닭강정",02-3437-3392,서울특별시 광진구 구의동 52-1,서울특별시 광진구 천호대로129길 22,319864,550447,,http://www.mdcco.co.kr
동달식당 판교점,한식>돼지고기구이,031-724-2700,경기도 성남시 분당구 삼평동 670,경기도 성남시 분당구 대왕판교로 660 3층,321104,533521,,https://dongdalpangyo.modoo.at
,,,,,,,,
,,,,,,,,
,,,,,,,,
,,,,,,,,
,,,,,,,,
,,,,,,,,
,,,,,,,,
,,,,,,,,
대박함바식당,음식점>한식,033-264-1250,강원도 춘천시 동내면 학곡리 417,강원도 춘천시 동내면 영서로 1860-8,379040,582223,,
,,,,,,,,
,,,,,,,,
막창도둑 동촌점,"한식>곱창,막창,양",053-958-8892,대구광역시 동구 효목동 1255-1,대구광역시 동구 효동로6길 21,458835,364765,,
,,,,,,,,
작은언니네식당,음식점>한식,032-932-2884,인천광역시 강화군 내가면 외포리 546-2,인천광역시 강화군 내가면 중앙로 1310,257286,567827,,
,,,,,,,,
,,,,,,,,
,,,,,,,,
,,,,,,,,
,,,,,,,,
,,,,,,,,
,,,,,,,,
디자인움,전문디자인>시각디자인,032-577-1369,인천광역시 동구 송림동 294,인천광역시 동구 방축로83번길 23 인천산업용품유통단지 24동 222호,281242,543488,,http://www.designwoom.com/
,,,,,,,,
,,,,,,,,
,,,,,,,,
,,,,,,,,
,,,,,,,,
,,,,,,,,
